ONEWEB-0395             
1 50475U 21132G   26197.99907442 -.00000081  00000+0 -26386-3 0  9997
2 50475  87.8885  15.1298 0001999  84.6037 275.5319 13.11419423219620
ONEWEB-0396             
1 50476U 21132H   26197.91083691 -.00000006  00000+0 -48906-4 0  9991
2 50476  87.9199 329.5451 0001738  96.9203 263.2126 13.18686427225551
ONEWEB-0397             
1 50477U 21132J   26198.30538927  .00000058  00000+0  11526-3 0  9995
2 50477  87.9199 329.4664 0001658  99.2107 260.9212 13.18687301225582
ONEWEB-0398             
1 50478U 21132K   26197.96686656 -.00000149  00000+0 -45525-3 0  9999
2 50478  87.8890  15.1291 0002161  88.3869 271.7507 13.11414946219518
ONEWEB-0399             
1 50479U 21132L   26197.95331264  .00000400  00000+0  10919-2 0  9997
2 50479  87.8893  15.1431 0001508  78.0701 282.0596 13.11415280219507
ONEWEB-0400             
1 50480U 21132M   26197.90408641 -.00000029  00000+0 -10609-3 0  9994
2 50480  87.9200 329.5362 0002045  96.4544 263.6821 13.18684497225523
ONEWEB-0401             
1 50481U 21132N   26198.32900127  .00000041  00000+0  71737-4 0  9990
2 50481  87.9202 329.4495 0001796 105.3566 254.7765 13.18686592225580
ONEWEB-0402             
1 50482U 21132P   26197.91251173  .00000012  00000+0 -34194-5 0  9991
2 50482  87.9199 329.5206 0001621 113.0699 247.0605 13.18687406225557
ONEWEB-0403             
1 50483U 21132Q   26198.31719805  .00000077  00000+0  16345-3 0  9994
2 50483  87.9198 329.4648 0001825  93.8912 266.2429 13.18686529225568
ONEWEB-0404             
1 50484U 21132R   26198.23984321  .00000344  00000+0  93481-3 0  9996
2 50484  87.8889  15.0828 0001803  81.0352 279.0980 13.11417586219639
ONEWEB-0405             
1 50485U 21132S   26198.33068591  .00000073  00000+0  15272-3 0  9991
2 50485  87.9201 329.4475 0002369  95.9667 264.1735 13.18684782225967
ONEWEB-0406             
1 50486U 21132T   26197.86699150  .00000060  00000+0  11995-3 0  9994
2 50486  87.9194 329.5541 0001712  82.0312 278.1014 13.18686496225531
ONEWEB-0407             
1 50487U 21132U   26198.31549490 -.00000176  00000+0 -47861-3 0  9998
2 50487  87.9200 329.4588 0001980 103.6655 256.4698 13.18685827225531
ONEWEB-0409             
1 50488U 21132V   26197.55148090  .00000336  00000+0  91231-3 0  9991
2 50488  87.8891  15.2093 0001910  82.4001 277.7344 13.11418049219439
ONEWEB-0412             
1 50489U 21132W   26198.30370448  .00000092  00000+0  19989-3 0  9999
2 50489  87.9198 329.4684 0001696 106.3604 253.7715 13.18687036225628
ONEWEB-0413             
1 50490U 21132X   26198.30875798  .00000088  00000+0  18994-3 0  9999
2 50490  87.9189 329.4636 0001864 108.0093 252.1243 13.18688225225568
ONEWEB-0414             
1 50491U 21132Y   26197.91420437 -.00000022  00000+0 -87778-4 0  9999
2 50491  87.9199 329.5269 0001698  97.7568 262.3757 13.18686873225547
ONEWEB-0417             
1 50492U 21132Z   26198.30201345  .00000066  00000+0  13462-3 0  9993
2 50492  87.9193 329.4668 0001852  92.9990 267.1354 13.18687453225576
ONEWEB-0418             
1 50493U 21132AA  26198.31199598  .00000081  00000+0  17342-3 0  9999
2 50493  87.9195 329.4664 0001862  90.1193 270.0153 13.18686232225632
ONEWEB-0419             
1 50494U 21132AB  26198.33105394  .00000064  00000+0  13027-3 0  9990
2 50494  87.9199 329.4635 0002088  92.6717 267.4654 13.18666001225554
ONEWEB-0420             
1 50495U 21132AC  26197.91588034 -.00000003  00000+0 -39384-4 0  9990
2 50495  87.9192 329.5458 0002039 104.2674 255.8685 13.18684530225495
ONEWEB-0421             
1 50496U 21132AD  26197.90915847  .00000011  00000+0 -44039-5 0  9998
2 50496  87.9193 329.5454 0001536 102.7530 257.3774 13.18686468225531
ONEWEB-0424             
1 50497U 21132AE  26197.87036858  .00000066  00000+0  13536-3 0  9996
2 50497  87.9198 329.5533 0002212  92.8998 267.2388 13.18686470225550
ONEWEB-0426             
1 50498U 21132AF  26197.90493660 -.00000044  00000+0 -14479-3 0  9994
2 50498  87.9200 329.5369 0001325  83.9003 276.2280 13.18686449225506
ONEWEB-0427             
1 50499U 21132AG  26197.86868351  .00000048  00000+0  90279-4 0  9998
2 50499  87.9200 329.5335 0001812  91.6684 268.4656 13.18686702225526
ONEWEB-0429             
1 50500U 21132AH  26197.85518006  .00000019  00000+0  14665-4 0  9992
2 50500  87.9191 329.5584 0001937 102.1055 258.0295 13.18687374225498
ONEWEB-0430             
1 50501U 21132AJ  26198.29863158  .00000049  00000+0  90590-4 0  9997
2 50501  87.9192 329.4686 0002114 103.1399 256.9969 13.18688920225596
ONEWEB-0432             
1 50502U 21132AK  26197.90227144 -.00000010  00000+0 -58187-4 0  9990
2 50502  87.9198 329.5343 0002338  97.4537 262.6861 13.18686459225490
ONEWEB-0440             
1 50503U 21132AL  26198.31887446  .00000091  00000+0  19726-3 0  9996
2 50503  87.9200 329.4631 0001749 107.5416 252.5907 13.18687301225540
ONEWEB-0450             
1 50504U 21132AM  26198.31227153  .00000073  00000+0  15233-3 0  9999
2 50504  87.9190 329.4666 0002025 103.0402 257.0956 13.18687120225577
